IRIDIUM 159             
1 43578U 18061K   25232.92252894  .00000066  00000+0  16443-4 0  9991
2 43578  86.4027 182.1737 0002345  80.0121 280.1340 14.34217998370344
IRIDIUM 180             
1 43922U 19002A   25234.10808930  .00000008  00000+0 -42004-5 0  9990
2 43922  86.3970 118.6530 0001922  83.6637 276.4778 14.34217602346123
IRIDIUM 176             
1 43923U 19002B   25234.10107972  .00000671  00000+0  10252-3 0  9992
2 43923  86.6093 118.6430 0001993 101.8185 258.3256 14.72258672355248
IRIDIUM 168             
1 43924U 19002C   25234.10174699  .00000052  00000+0  11491-4 0  9993
2 43924  86.3970 118.7249 0002130  85.1342 275.0097 14.34217809346101
IRIDIUM 173             
1 43925U 19002D   25233.80998776  .00000026  00000+0  22931-5 0  9993
2 43925  86.3968 118.7480 0001949  86.1037 274.0382 14.34217541346047
IRIDIUM 169             
1 43926U 19002E   25232.84086846  .00000264  00000+0  79636-4 0  9990
2 43926  86.4285 150.7543 0001498 120.4410 239.6937 14.38610170347046
IRIDIUM 172             
1 43927U 19002F   25232.75711407  .00000204  00000+0  65917-4 0  9990
2 43927  86.3970 119.1949 0002094  77.4101 282.7329 14.34218902345907
IRIDIUM 175             
1 43928U 19002G   25234.50397024  .00000243  00000+0  34618-4 0  9998
2 43928  86.1451  67.1942 0002959 101.4402 258.7147 14.72244473355295
